[{"OBJECT_NAME":"STARLINK-1954","OBJECT_ID":"2021-009H","EPOCH":"2026-03-09T23:20:25.352160","MEAN_MOTION":15.30849174,"ECCENTRICITY":0.00046184,"INCLINATION":53.0574,"RA_OF_ASC_NODE":8.8654,"ARG_OF_PERICENTER":103.3293,"MEAN_ANOMALY":256.8222,"EPHEMERIS_TYPE":0,"CLASSIFICATION_TYPE":"U","NORAD_CAT_ID":47555,"ELEMENT_SET_NO":999,"REV_AT_EPOCH":28100,"BSTAR":0.0022371791,"MEAN_MOTION_DOT":0.00067883,"MEAN_MOTION_DDOT":0},{"OBJECT_NAME":"STARLINK-33787","OBJECT_ID":"2025-071AC","EPOCH":"2026-03-09T11:10:17.912640","MEAN_MOTION":15.30188521,"ECCENTRICITY":0.00012529,"INCLINATION":53.1596,"RA_OF_ASC_NODE":143.1949,"ARG_OF_PERICENTER":63.8364,"MEAN_ANOMALY":296.2765,"EPHEMERIS_TYPE":0,"CLASSIFICATION_TYPE":"U","NORAD_CAT_ID":63519,"ELEMENT_SET_NO":999,"REV_AT_EPOCH":5233,"BSTAR":0.00088384149,"MEAN_MOTION_DOT":0.000259,"MEAN_MOTION_DDOT":0}]
